CCSDS_OMM_VERS = 2.0
CREATION_DATE  = 
ORIGINATOR     = 

OBJECT_NAME    = SL-16 R/B
OBJECT_ID      = 1993-016B
CENTER_NAME    = EARTH
REF_FRAME      = TEME
TIME_SYSTEM    = UTC
MEAN_ELEMENT_THEORY = SGP/SGP4

EPOCH          = 2025-12-28T17:58:38.855712
MEAN_MOTION    = 14.15294684
ECCENTRICITY   = .0008049
INCLINATION    = 71.0086
RA_OF_ASC_NODE = 4.1785
ARG_OF_PERICENTER = 65.4158
MEAN_ANOMALY   = 294.7803

EPHEMERIS_TYPE = 0
CLASSIFICATION_TYPE = U
NORAD_CAT_ID   = 22566
ELEMENT_SET_NO = 999
REV_AT_EPOCH   = 69213
BSTAR          = .10519E-3
MEAN_MOTION_DOT = .157E-5
MEAN_MOTION_DDOT = 0

CCSDS_OMM_VERS = 2.0
CREATION_DATE  = 
ORIGINATOR     = 

OBJECT_NAME    = COSMOS 2242
OBJECT_ID      = 1993-024A
CENTER_NAME    = EARTH
REF_FRAME      = TEME
TIME_SYSTEM    = UTC
MEAN_ELEMENT_THEORY = SGP/SGP4

EPOCH          = 2025-12-28T08:27:53.731872
MEAN_MOTION    = 14.96174699
ECCENTRICITY   = .00162183
INCLINATION    = 82.5195
RA_OF_ASC_NODE = 334.9208
ARG_OF_PERICENTER = 178.9470
MEAN_ANOMALY   = 181.1789

EPHEMERIS_TYPE = 0
CLASSIFICATION_TYPE = U
NORAD_CAT_ID   = 22626
ELEMENT_SET_NO = 999
REV_AT_EPOCH   = 76972
BSTAR          = .26988529E-3
MEAN_MOTION_DOT = .3073E-4
MEAN_MOTION_DDOT = 0

CCSDS_OMM_VERS = 2.0
CREATION_DATE  = 
ORIGINATOR     = 

OBJECT_NAME    = SL-16 R/B
OBJECT_ID      = 1993-059B
CENTER_NAME    = EARTH
REF_FRAME      = TEME
TIME_SYSTEM    = UTC
MEAN_ELEMENT_THEORY = SGP/SGP4

EPOCH          = 2025-12-28T19:47:43.878624
MEAN_MOTION    = 14.17218089
ECCENTRICITY   = .0018799
INCLINATION    = 70.9892
RA_OF_ASC_NODE = 160.5667
ARG_OF_PERICENTER = 312.9886
MEAN_ANOMALY   = 46.9661

EPHEMERIS_TYPE = 0
CLASSIFICATION_TYPE = U
NORAD_CAT_ID   = 22803
ELEMENT_SET_NO = 999
REV_AT_EPOCH   = 66949
BSTAR          = .12159E-3
MEAN_MOTION_DOT = .198E-5
MEAN_MOTION_DDOT = 0

CCSDS_OMM_VERS = 2.0
CREATION_DATE  = 
ORIGINATOR     = 

OBJECT_NAME    = ARIANE 40 R/B
OBJECT_ID      = 1993-061H
CENTER_NAME    = EARTH
REF_FRAME      = TEME
TIME_SYSTEM    = UTC
MEAN_ELEMENT_THEORY = SGP/SGP4

EPOCH          = 2025-12-28T19:40:10.994016
MEAN_MOTION    = 14.32812509
ECCENTRICITY   = .0011653
INCLINATION    = 98.5055
RA_OF_ASC_NODE = 68.0554
ARG_OF_PERICENTER = 130.9158
MEAN_ANOMALY   = 229.3037

EPHEMERIS_TYPE = 0
CLASSIFICATION_TYPE = U
NORAD_CAT_ID   = 22830
ELEMENT_SET_NO = 999
REV_AT_EPOCH   = 68395
BSTAR          = .13782E-3
MEAN_MOTION_DOT = .333E-5
MEAN_MOTION_DDOT = 0

CCSDS_OMM_VERS = 2.0
CREATION_DATE  = 
ORIGINATOR     = 

OBJECT_NAME    = COSMOS 2278
OBJECT_ID      = 1994-023A
CENTER_NAME    = EARTH
REF_FRAME      = TEME
TIME_SYSTEM    = UTC
MEAN_ELEMENT_THEORY = SGP/SGP4

EPOCH          = 2025-12-28T14:10:20.286912
MEAN_MOTION    = 14.14349925
ECCENTRICITY   = .0007673
INCLINATION    = 71.0536
RA_OF_ASC_NODE = 323.8472
ARG_OF_PERICENTER = 150.8384
MEAN_ANOMALY   = 209.3168

EPHEMERIS_TYPE = 0
CLASSIFICATION_TYPE = U
NORAD_CAT_ID   = 23087
ELEMENT_SET_NO = 999
REV_AT_EPOCH   = 63475
BSTAR          = .14538E-3
MEAN_MOTION_DOT = .231E-5
MEAN_MOTION_DDOT = 0

CCSDS_OMM_VERS = 2.0
CREATION_DATE  = 
ORIGINATOR     = 

OBJECT_NAME    = SL-16 R/B
OBJECT_ID      = 1994-023B
CENTER_NAME    = EARTH
REF_FRAME      = TEME
TIME_SYSTEM    = UTC
MEAN_ELEMENT_THEORY = SGP/SGP4

EPOCH          = 2025-12-28T14:21:59.707872
MEAN_MOTION    = 14.14998646
ECCENTRICITY   = .0002257
INCLINATION    = 70.9971
RA_OF_ASC_NODE = 220.1824
ARG_OF_PERICENTER = 0.9368
MEAN_ANOMALY   = 359.1759

EPHEMERIS_TYPE = 0
CLASSIFICATION_TYPE = U
NORAD_CAT_ID   = 23088
ELEMENT_SET_NO = 999
REV_AT_EPOCH   = 63603
BSTAR          = -.40542E-4
MEAN_MOTION_DOT = -.126E-5
MEAN_MOTION_DDOT = 0

CCSDS_OMM_VERS = 2.0
CREATION_DATE  = 
ORIGINATOR     = 

OBJECT_NAME    = SL-16 R/B
OBJECT_ID      = 1994-074B
CENTER_NAME    = EARTH
REF_FRAME      = TEME
TIME_SYSTEM    = UTC
MEAN_ELEMENT_THEORY = SGP/SGP4

EPOCH          = 2025-12-28T13:56:24.131040
MEAN_MOTION    = 14.79308194
ECCENTRICITY   = .0008048
INCLINATION    = 97.7188
RA_OF_ASC_NODE = 31.2545
ARG_OF_PERICENTER = 92.6693
MEAN_ANOMALY   = 23.5886

EPHEMERIS_TYPE = 0
CLASSIFICATION_TYPE = U
NORAD_CAT_ID   = 23343
ELEMENT_SET_NO = 999
REV_AT_EPOCH   = 67673
BSTAR          = .92022E-4
MEAN_MOTION_DOT = .636E-5
MEAN_MOTION_DDOT = 0

CCSDS_OMM_VERS = 2.0
CREATION_DATE  = 
ORIGINATOR     = 

OBJECT_NAME    = SL-16 R/B
OBJECT_ID      = 1994-077B
CENTER_NAME    = EARTH
REF_FRAME      = TEME
TIME_SYSTEM    = UTC
MEAN_ELEMENT_THEORY = SGP/SGP4

EPOCH          = 2025-12-28T19:40:43.277376
MEAN_MOTION    = 14.15551098
ECCENTRICITY   = .0005039
INCLINATION    = 70.9825
RA_OF_ASC_NODE = 141.5854
ARG_OF_PERICENTER = 271.6846
MEAN_ANOMALY   = 88.3699

EPHEMERIS_TYPE = 0
CLASSIFICATION_TYPE = U
NORAD_CAT_ID   = 23405
ELEMENT_SET_NO = 999
REV_AT_EPOCH   = 60620
BSTAR          = -.95511E-4
MEAN_MOTION_DOT = -.235E-5
MEAN_MOTION_DDOT = 0

CCSDS_OMM_VERS = 2.0
CREATION_DATE  = 
ORIGINATOR     = 

OBJECT_NAME    = ARIANE 40+ R/B
OBJECT_ID      = 1995-021B
CENTER_NAME    = EARTH
REF_FRAME      = TEME
TIME_SYSTEM    = UTC
MEAN_ELEMENT_THEORY = SGP/SGP4

EPOCH          = 2025-12-28T19:12:25.545024
MEAN_MOTION    = 14.39708098
ECCENTRICITY   = .0006625
INCLINATION    = 98.4631
RA_OF_ASC_NODE = 70.1940
ARG_OF_PERICENTER = 4.2840
MEAN_ANOMALY   = 105.7627

EPHEMERIS_TYPE = 0
CLASSIFICATION_TYPE = U
NORAD_CAT_ID   = 23561
ELEMENT_SET_NO = 999
REV_AT_EPOCH   = 60904
BSTAR          = .13945E-3
MEAN_MOTION_DOT = .393E-5
MEAN_MOTION_DDOT = 0

CCSDS_OMM_VERS = 2.0
CREATION_DATE  = 
ORIGINATOR     = 

OBJECT_NAME    = SL-16 R/B
OBJECT_ID      = 1995-058B
CENTER_NAME    = EARTH
REF_FRAME      = TEME
TIME_SYSTEM    = UTC
MEAN_ELEMENT_THEORY = SGP/SGP4

EPOCH          = 2025-12-28T06:11:39.720768
MEAN_MOTION    = 14.15481408
ECCENTRICITY   = .00145
INCLINATION    = 71.0218
RA_OF_ASC_NODE = 330.2229
ARG_OF_PERICENTER = 234.5408
MEAN_ANOMALY   = 125.4362

EPHEMERIS_TYPE = 0
CLASSIFICATION_TYPE = U
NORAD_CAT_ID   = 23705
ELEMENT_SET_NO = 999
REV_AT_EPOCH   = 55774
BSTAR          = .27416E-4
MEAN_MOTION_DOT = .6E-7
MEAN_MOTION_DDOT = 0

CCSDS_OMM_VERS = 2.0
CREATION_DATE  = 
ORIGINATOR     = 

OBJECT_NAME    = SL-16 R/B
OBJECT_ID      = 1996-051B
CENTER_NAME    = EARTH
REF_FRAME      = TEME
TIME_SYSTEM    = UTC
MEAN_ELEMENT_THEORY = SGP/SGP4

EPOCH          = 2025-12-28T08:27:59.734944
MEAN_MOTION    = 14.12398014
ECCENTRICITY   = .00194482
INCLINATION    = 70.7597
RA_OF_ASC_NODE = 326.2350
ARG_OF_PERICENTER = 242.2059
MEAN_ANOMALY   = 117.7089

EPHEMERIS_TYPE = 0
CLASSIFICATION_TYPE = U
NORAD_CAT_ID   = 24298
ELEMENT_SET_NO = 999
REV_AT_EPOCH   = 51157
BSTAR          = .35975271E-4
MEAN_MOTION_DOT = .17E-6
MEAN_MOTION_DDOT = 0

CCSDS_OMM_VERS = 2.0
CREATION_DATE  = 
ORIGINATOR     = 

OBJECT_NAME    = ORBVIEW 2 (SEASTAR)
OBJECT_ID      = 1997-037A
CENTER_NAME    = EARTH
REF_FRAME      = TEME
TIME_SYSTEM    = UTC
MEAN_ELEMENT_THEORY = SGP/SGP4

EPOCH          = 2025-12-28T11:01:53.282208
MEAN_MOTION    = 14.35428946
ECCENTRICITY   = .00012049
INCLINATION    = 98.8465
RA_OF_ASC_NODE = 159.9306
ARG_OF_PERICENTER = 268.5354
MEAN_ANOMALY   = 91.5692

EPHEMERIS_TYPE = 0
CLASSIFICATION_TYPE = U
NORAD_CAT_ID   = 24883
ELEMENT_SET_NO = 999
REV_AT_EPOCH   = 49825
BSTAR          = .16566989E-3
MEAN_MOTION_DOT = .429E-5
MEAN_MOTION_DDOT = 0

