SL-16 R/B               
1 22566U 93016B   25362.74906083  .00000157  00000+0  10519-3 0  9996
2 22566  71.0086   4.1785 0008049  65.4158 294.7803 14.15294684692138
COSMOS 2242             
1 22626U 93024A   25362.35270523  .00003073  00000+0  26989-3 0  9990
2 22626  82.5195 334.9208 0016218 178.9470 181.1789 14.96174699769725
SL-16 R/B               
1 22803U 93059B   25362.82481341  .00000198  00000+0  12159-3 0  9998
2 22803  70.9892 160.5667 0018799 312.9886  46.9661 14.17218089669491
ARIANE 40 R/B           
1 22830U 93061H   25362.81957169  .00000333  00000+0  13782-3 0  9990
2 22830  98.5055  68.0554 0011653 130.9158 229.3037 14.32812509683952
COSMOS 2278             
1 23087U 94023A   25362.59051258  .00000231  00000+0  14538-3 0  9990
2 23087  71.0536 323.8472 0007673 150.8384 209.3168 14.14349925634751
SL-16 R/B               
1 23088U 94023B   25362.59860773 -.00000126  00000+0 -40542-4 0  9991
2 23088  70.9971 220.1824 0002257   0.9368 359.1759 14.14998646636036
SL-16 R/B               
1 23343U 94074B   25362.58083485  .00000636  00000+0  92022-4 0  9991
2 23343  97.7188  31.2545 0008048  92.6693  23.5886 14.79308194676739
SL-16 R/B               
1 23405U 94077B   25362.81994534 -.00000235  00000+0 -95511-4 0  9998
2 23405  70.9825 141.5854 0005039 271.6846  88.3699 14.15551098606202
ARIANE 40+ R/B          
1 23561U 95021B   25362.80029566  .00000393  00000+0  13945-3 0  9997
2 23561  98.4631  70.1940 0006625   4.2840 105.7627 14.39708098609044
SL-16 R/B               
1 23705U 95058B   25362.25809862  .00000006  00000+0  27416-4 0  9991
2 23705  71.0218 330.2229 0014500 234.5408 125.4362 14.15481408557742
SL-16 R/B               
1 24298U 96051B   25362.35277471  .00000017  00000+0  35975-4 0  9990
2 24298  70.7597 326.2350 0019448 242.2059 117.7089 14.12398014511578
ORBVIEW 2 (SEASTAR)     
1 24883U 97037A   25362.45964447  .00000429  00000+0  16567-3 0  9994
2 24883  98.8465 159.9306 0001204 268.5354  91.5692 14.35428946498256
